{
  "type": "FeatureCollection",
  "features": [
    {
      "type": "Feature",
      "properties": {
        "norad_id": 27954,
        "name": "GALAXY 13 (HORIZONS-1)",
        "group": "intelsat",
        "lat": -0.29328371300883577,
        "lon": -77.33327660294637,
        "alt_km": 35776.2535652584,
        "timestamp": "2025-12-26T22:28:05.446707+00:00",
        "meta_object_name": "GALAXY 13 (HORIZONS-1)",
        "meta_object_id": "2003-044A",
        "meta_epoch": "2025-12-26T11:53:43.073952",
        "meta_mean_motion": 1.00272501,
        "meta_eccentricity": 0.00022993,
        "meta_inclination": 0.9724,
        "meta_ra_of_asc_node": 86.2926,
        "meta_arg_of_pericenter": 187.4398,
        "meta_mean_anomaly": 209.9098,
        "meta_ephemeris_type": 0,
        "meta_classification_type": "U",
        "meta_norad_cat_id": 27954,
        "meta_element_set_no": 999,
        "meta_rev_at_epoch": 4484,
        "meta_bstar": 0,
        "meta_mean_motion_dot": 1.54e-06,
        "meta_mean_motion_ddot": 0,
        "tle_line1": "1 27954U 03044A   25360.49563743  .00000154  00000+0  00000+0 0  9993",
        "tle_line2": "2 27954   0.9724  86.2926 0002299 187.4398 209.9098  1.00272501 44841"
      },
      "geometry": {
        "type": "Point",
        "coordinates": [
          -77.33327660294637,
          -0.29328371300883577
        ]
      }
    },
    {
      "type": "Feature",
      "properties": {
        "norad_id": 28358,
        "name": "INTELSAT 10-02",
        "group": "intelsat",
        "lat": 0.02317351131194618,
        "lon": 71.74376534592768,
        "alt_km": 35789.89897675221,
        "timestamp": "2025-12-26T22:28:05.446719+00:00",
        "meta_object_name": "INTELSAT 10-02",
        "meta_object_id": "2004-022A",
        "meta_epoch": "2025-12-26T08:51:38.739168",
        "meta_mean_motion": 1.0027058,
        "meta_eccentricity": 0.00012469,
        "meta_inclination": 0.0178,
        "meta_ra_of_asc_node": 41.2908,
        "meta_arg_of_pericenter": 258.9062,
        "meta_mean_anomaly": 286.8755,
        "meta_ephemeris_type": 0,
        "meta_classification_type": "U",
        "meta_norad_cat_id": 28358,
        "meta_element_set_no": 999,
        "meta_rev_at_epoch": 7882,
        "meta_bstar": 0,
        "meta_mean_motion_dot": 1.1e-07,
        "meta_mean_motion_ddot": 0,
        "tle_line1": "1 28358U 04022A   25360.36919837  .00000011  00000+0  00000+0 0  9996",
        "tle_line2": "2 28358   0.0178  41.2908 0001246 258.9062 286.8755  1.00270580 78822"
      },
      "geometry": {
        "type": "Point",
        "coordinates": [
          71.74376534592768,
          0.02317351131194618
        ]
      }
    },
    {
      "type": "Feature",
      "properties": {
        "norad_id": 28626,
        "name": "XM-3 (RHYTHM)",
        "group": "intelsat",
        "lat": 0.14373496175135553,
        "lon": 119.50808160443914,
        "alt_km": 36165.98001104638,
        "timestamp": "2025-12-26T22:28:05.446731+00:00",
        "meta_object_name": "XM-3 (RHYTHM)",
        "meta_object_id": "2005-008A",
        "meta_epoch": "2025-12-26T04:42:51.380064",
        "meta_mean_motion": 0.98950411,
        "meta_eccentricity": 0.00022371,
        "meta_inclination": 0.2074,
        "meta_ra_of_asc_node": 82.2895,
        "meta_arg_of_pericenter": 272.1799,
        "meta_mean_anomaly": 221.5062,
        "meta_ephemeris_type": 0,
        "meta_classification_type": "U",
        "meta_norad_cat_id": 28626,
        "meta_element_set_no": 999,
        "meta_rev_at_epoch": 4088,
        "meta_bstar": 0,
        "meta_mean_motion_dot": 8.6e-07,
        "meta_mean_motion_ddot": 0,
        "tle_line1": "1 28626U 05008A   25360.19642801  .00000086  00000+0  00000+0 0  9996",
        "tle_line2": "2 28626   0.2074  82.2895 0002237 272.1799 221.5062  0.98950411 40889"
      },
      "geometry": {
        "type": "Point",
        "coordinates": [
          119.50808160443914,
          0.14373496175135553
        ]
      }
    },
    {
      "type": "Feature",
      "properties": {
        "norad_id": 28659,
        "name": "DIRECTV 8",
        "group": "intelsat",
        "lat": -0.027094241802859294,
        "lon": -46.33313006329717,
        "alt_km": 35774.38680402754,
        "timestamp": "2025-12-26T22:28:05.446743+00:00",
        "meta_object_name": "DIRECTV 8",
        "meta_object_id": "2005-019A",
        "meta_epoch": "2025-12-26T09:14:16.477152",
        "meta_mean_motion": 1.00271765,
        "meta_eccentricity": 0.00031342,
        "meta_inclination": 0.0135,
        "meta_ra_of_asc_node": 57.3028,
        "meta_arg_of_pericenter": 228.1399,
        "meta_mean_anomaly": 189.2168,
        "meta_ephemeris_type": 0,
        "meta_classification_type": "U",
        "meta_norad_cat_id": 28659,
        "meta_element_set_no": 999,
        "meta_rev_at_epoch": 7534,
        "meta_bstar": 0,
        "meta_mean_motion_dot": 2.3e-07,
        "meta_mean_motion_ddot": 0,
        "tle_line1": "1 28659U 05019A   25360.38491293  .00000023  00000+0  00000+0 0  9993",
        "tle_line2": "2 28659   0.0135  57.3028 0003134 228.1399 189.2168  1.00271765 75344"
      },
      "geometry": {
        "type": "Point",
        "coordinates": [
          -46.33313006329717,
          -0.027094241802859294
        ]
      }
    },
    {
      "type": "Feature",
      "properties": {
        "norad_id": 28702,
        "name": "GALAXY 28 (G-28)",
        "group": "intelsat",
        "lat": -2.8628652786105135,
        "lon": -7.747630028234271,
        "alt_km": 35699.80658922869,
        "timestamp": "2025-12-26T22:28:05.446755+00:00",
        "meta_object_name": "GALAXY 28 (G-28)",
        "meta_object_id": "2005-022A",
        "meta_epoch": "2025-12-26T11:40:12.062208",
        "meta_mean_motion": 1.00599644,
        "meta_eccentricity": 0.00034567,
        "meta_inclination": 2.855,
        "meta_ra_of_asc_node": 81.1219,
        "meta_arg_of_pericenter": 160.9204,
        "meta_mean_anomaly": 307.2288,
        "meta_ephemeris_type": 0,
        "meta_classification_type": "U",
        "meta_norad_cat_id": 28702,
        "meta_element_set_no": 999,
        "meta_rev_at_epoch": 5024,
        "meta_bstar": 0,
        "meta_mean_motion_dot": -2.33e-06,
        "meta_mean_motion_ddot": 0,
        "tle_line1": "1 28702U 05022A   25360.48625072 -.00000233  00000+0  00000+0 0  9995",
        "tle_line2": "2 28702   2.8550  81.1219 0003456 160.9204 307.2288  1.00599644 50242"
      },
      "geometry": {
        "type": "Point",
        "coordinates": [
          -7.747630028234271,
          -2.8628652786105135
        ]
      }
    },
    {
      "type": "Feature",
      "properties": {
        "norad_id": 29236,
        "name": "GALAXY 16 (G-16)",
        "group": "intelsat",
        "lat": 0.021759435508751732,
        "lon": -26.295798626485134,
        "alt_km": 35779.881859532434,
        "timestamp": "2025-12-26T22:28:05.446767+00:00",
        "meta_object_name": "GALAXY 16 (G-16)",
        "meta_object_id": "2006-023A",
        "meta_epoch": "2025-12-26T14:16:23.522880",
        "meta_mean_motion": 1.00271426,
        "meta_eccentricity": 0.00026731,
        "meta_inclination": 0.044,
        "meta_ra_of_asc_node": 195.1491,
        "meta_arg_of_pericenter": 82.4387,
        "meta_mean_anomaly": 292.8373,
        "meta_ephemeris_type": 0,
        "meta_classification_type": "U",
        "meta_norad_cat_id": 29236,
        "meta_element_set_no": 999,
        "meta_rev_at_epoch": 7124,
        "meta_bstar": 0,
        "meta_mean_motion_dot": -1.05e-06,
        "meta_mean_motion_ddot": 0,
        "tle_line1": "1 29236U 06023A   25360.59471670 -.00000105  00000+0  00000+0 0  9993",
        "tle_line2": "2 29236   0.0440 195.1491 0002673  82.4387 292.8373  1.00271426 71243"
      },
      "geometry": {
        "type": "Point",
        "coordinates": [
          -26.295798626485134,
          0.021759435508751732
        ]
      }
    },
    {
      "type": "Feature",
      "properties": {
        "norad_id": 29494,
        "name": "DIRECTV 9S",
        "group": "intelsat",
        "lat": -1.8491840734156957,
        "lon": -28.495663779187517,
        "alt_km": 35778.1918602364,
        "timestamp": "2025-12-26T22:28:05.446779+00:00",
        "meta_object_name": "DIRECTV 9S",
        "meta_object_id": "2006-043A",
        "meta_epoch": "2025-12-26T11:22:08.462784",
        "meta_mean_motion": 1.00271472,
        "meta_eccentricity": 0.00030901,
        "meta_inclination": 1.9736,
        "meta_ra_of_asc_node": 83.0647,
        "meta_arg_of_pericenter": 197.4585,
        "meta_mean_anomaly": 244.0274,
        "meta_ephemeris_type": 0,
        "meta_classification_type": "U",
        "meta_norad_cat_id": 29494,
        "meta_element_set_no": 999,
        "meta_rev_at_epoch": 4965,
        "meta_bstar": 0,
        "meta_mean_motion_dot": -9.2e-07,
        "meta_mean_motion_ddot": 0,
        "tle_line1": "1 29494U 06043A   25360.47370906 -.00000092  00000+0  00000+0 0  9993",
        "tle_line2": "2 29494   1.9736  83.0647 0003090 197.4585 244.0274  1.00271472 49656"
      },
      "geometry": {
        "type": "Point",
        "coordinates": [
          -28.495663779187517,
          -1.8491840734156957
        ]
      }
    }
  ]
}